ISS (ZARYA)             
1 25544U 98067A   25311.45303466  .00013372  00000+0  24333-3 0  9996
2 25544  51.6332 317.1578 0005147  27.3119 332.8140 15.49822938537382
CSS (TIANHE)            
1 48274U 21035A   25312.06404718  .00037939  00000+0  44658-3 0  9999
2 48274  41.4661 227.2566 0005443 342.7582  17.3071 15.60644596258613
ISS (NAUKA)             
1 49044U 21066A   25311.19511068  .00011482  00000+0  21019-3 0  9990
2 49044  51.6334 318.4356 0005154  25.9626 334.1621 15.49813276230449
CSS (WENTIAN)           
1 53239U 22085A   25311.04013910  .00032955  00000+0  38997-3 0  9991
2 53239  41.4666 233.4859 0005699 336.2635  23.7940 15.60556280173848
CSS (MENGTIAN)          
1 54216U 22143A   25311.04013910  .00032955  00000+0  38997-3 0  9992
2 54216  41.4666 233.4859 0005699 336.2635  23.7940 15.60556280158645
SOYUZ-MS 27             
1 63520U 25072A   25311.19511068  .00011482  00000+0  21019-3 0  9996
2 63520  51.6334 318.4356 0005154  25.9626 334.1621 15.49813276 20205
SHENZHOU-20 (SZ-20)     
1 63632U 25082A   25311.04013910  .00032955  00000+0  38997-3 0  9999
2 63632  41.4666 233.4859 0005699 336.2635  23.7940 15.60556280255308
PROGRESS-MS 31          
1 64751U 25146A   25311.19511068  .00011482  00000+0  21019-3 0  9995
2 64751  51.6334 318.4356 0005154  25.9626 334.1621 15.49813276  6756
TIANZHOU-9              
1 64786U 25149A   25311.04013910  .00032955  00000+0  38997-3 0  9994
2 64786  41.4666 233.4859 0005699 336.2635  23.7940 15.60556280255309
CREW DRAGON 11          
1 65077U 25166A   25311.19511068  .00011482  00000+0  21019-3 0  9999
2 65077  51.6334 318.4356 0005154  25.9626 334.1621 15.49813276  2147
DRAGON CRS-33           
1 65304U 25186A   25311.19511068  .00011482  00000+0  21019-3 0  9994
2 65304  51.6334 318.4356 0005154  25.9626 334.1621 15.49813276   115
